{"type": "FeatureCollection", "features": [ {"type": "Feature", "properties": {"norad_id": 47073, "name": "COSMOS 2251 DEB", "group": "cosmos-2251-debris", "lat": 62.29671240127987, "lon": -131.69792496747814, "alt_km": 984.4877849313398, "timestamp": "2025-12-16T10:53:45.869900+00:00", "meta": {"OBJECT_NAME": "COSMOS 2251 DEB", "OBJECT_ID": "1993-036BYD", "EPOCH": "2025-12-15T07:13:18.345792", "MEAN_MOTION": 14.04726954, "ECCENTRICITY": 0.01614948, "INCLINATION": 74.0808, "RA_OF_ASC_NODE": 197.3835, "ARG_OF_PERICENTER": 235.0635, "MEAN_ANOMALY": 123.5242, "EPHEMERIS_TYPE": 0, "CLASSIFICATION_TYPE": "U", "NORAD_CAT_ID": 47073, "ELEMENT_SET_NO": 999, "REV_AT_EPOCH": 60397, "BSTAR": 0.00047491463, "MEAN_MOTION_DOT": 8.3e-06, "MEAN_MOTION_DDOT": 0}, "tle": {"line1": "1 47073U 93036BYD 25349.30090678  .00000830  00000+0  47491-3 0  9996", "line2": "2 47073  74.0808 197.3835 0161494 235.0635 123.5242 14.04726954603971"}}, "geometry": {"type": "Point", "coordinates": [-131.69792496747814, 62.29671240127987]}}, {"type": "Feature", "properties": {"norad_id": 47074, "name": "COSMOS 2251 DEB", "group": "cosmos-2251-debris", "lat": -74.00396658241786, "lon": -142.23150476847982, "alt_km": 723.4142172025877, "timestamp": "2025-12-16T10:53:45.869910+00:00", "meta": {"OBJECT_NAME": "COSMOS 2251 DEB", "OBJECT_ID": "1993-036BYE", "EPOCH": "2025-12-14T04:11:13.221312", "MEAN_MOTION": 14.35642167, "ECCENTRICITY": 0.01443955, "INCLINATION": 74.0928, "RA_OF_ASC_NODE": 306.0867, "ARG_OF_PERICENTER": 333.9611, "MEAN_ANOMALY": 42.2812, "EPHEMERIS_TYPE": 0, "CLASSIFICATION_TYPE": "U", "NORAD_CAT_ID": 47074, "ELEMENT_SET_NO": 999, "REV_AT_EPOCH": 2703, "BSTAR": 0.001977061, "MEAN_MOTION_DOT": 6.399e-05, "MEAN_MOTION_DDOT": 0}, "tle": {"line1": "1 47074U 93036BYE 25348.17445858  .00006399  00000+0  19771-2 0  9990", "line2": "2 47074  74.0928 306.0867 0144395 333.9611  42.2812 14.35642167 27036"}}, "geometry": {"type": "Point", "coordinates": [-142.23150476847982, -74.00396658241786]}}, {"type": "Feature", "properties": {"norad_id": 47116, "name": "COSMOS 2251 DEB", "group": "cosmos-2251-debris", "lat": -54.108466256037794, "lon": 76.50495936603693, "alt_km": 578.4251689926559, "timestamp": "2025-12-16T10:53:45.869920+00:00", "meta": {"OBJECT_NAME": "COSMOS 2251 DEB", "OBJECT_ID": "1993-036BYJ", "EPOCH": "2025-12-15T10:35:15.431712", "MEAN_MOTION": 14.98340246, "ECCENTRICITY": 0.00212808, "INCLINATION": 74.0234, "RA_OF_ASC_NODE": 235.2363, "ARG_OF_PERICENTER": 329.1106, "MEAN_ANOMALY": 207.4112, "EPHEMERIS_TYPE": 0, "CLASSIFICATION_TYPE": "U", "NORAD_CAT_ID": 47116, "ELEMENT_SET_NO": 999, "REV_AT_EPOCH": 59551, "BSTAR": 0.0012172499, "MEAN_MOTION_DOT": 0.00014561, "MEAN_MOTION_DDOT": 0}, "tle": {"line1": "1 47116U 93036BYJ 25349.44115083  .00014561  00000+0  12172-2 0  9990", "line2": "2 47116  74.0234 235.2363 0021280 329.1106 207.4112 14.98340246595513"}}, "geometry": {"type": "Point", "coordinates": [76.50495936603693, -54.108466256037794]}}, {"type": "Feature", "properties": {"norad_id": 53093, "name": "COSMOS 2251 DEB", "group": "cosmos-2251-debris", "lat": 27.15320280669392, "lon": -56.986787938864595, "alt_km": 737.5519979545525, "timestamp": "2025-12-16T10:53:45.869932+00:00", "meta": {"OBJECT_NAME": "COSMOS 2251 DEB", "OBJECT_ID": "1993-036BYP", "EPOCH": "2025-12-15T21:26:40.049376", "MEAN_MOTION": 14.41899568, "ECCENTRICITY": 0.00194377, "INCLINATION": 74.0365, "RA_OF_ASC_NODE": 295.6093, "ARG_OF_PERICENTER": 12.2432, "MEAN_ANOMALY": 347.9192, "EPHEMERIS_TYPE": 0, "CLASSIFICATION_TYPE": "U", "NORAD_CAT_ID": 53093, "ELEMENT_SET_NO": 999, "REV_AT_EPOCH": 17771, "BSTAR": 0.00064361286, "MEAN_MOTION_DOT": 2.086e-05, "MEAN_MOTION_DDOT": 0}, "tle": {"line1": "1 53093U 93036BYP 25349.89351909  .00002086  00000+0  64361-3 0  9996", "line2": "2 53093  74.0365 295.6093 0019437  12.2432 347.9192 14.41899568177712"}}, "geometry": {"type": "Point", "coordinates": [-56.986787938864595, 27.15320280669392]}}]}